[{"ORDINAL":"4","COMMENT":"GENERATED VIA SPACETRACK.ORG API","ORIGINATOR":"JSPOC","NORAD_CAT_ID":"40260","OBJECT_NAME":"BREEZE-M DEB (TANK)","OBJECT_TYPE":"DEBRIS","CLASSIFICATION_TYPE":"U","INTLDES":"14058C","EPOCH":"2014-11-29 23:38:00","EPOCH_MICROSECONDS":"463775","MEAN_MOTION":"2.27045359","ECCENTRICITY":"0.7199743","INCLINATION":"46.1431","RA_OF_ASC_NODE":"304.1966","ARG_OF_PERICENTER":"16.9668","MEAN_ANOMALY":"358.0046","EPHEMERIS_TYPE":"0","ELEMENT_SET_NO":"37","REV_AT_EPOCH":"140","BSTAR":"0.00084502","MEAN_MOTION_DOT":"1.79e-06","MEAN_MOTION_DDOT":"0","FILE":"1786131","TLE_LINE0":"0 BREEZE-M DEB (TANK)","TLE_LINE1":"1 40260U 14058C   14333.98472759  .00000179  00000-0  84502-3 0   377","TLE_LINE2":"2 40260 046.1431 304.1966 7199743 016.9668 358.0046 02.27045359  1406","OBJECT_ID":"2014-058C","OBJECT_NUMBER":"40260"},{"ORDINAL":"3","COMMENT":"GENERATED VIA SPACETRACK.ORG API","ORIGINATOR":"JSPOC","NORAD_CAT_ID":"40289","OBJECT_NAME":"CZ-2C DEB","OBJECT_TYPE":"DEBRIS","CLASSIFICATION_TYPE":"U","INTLDES":"14066D","EPOCH":"2014-11-29 21:12:17","EPOCH_MICROSECONDS":"733311","MEAN_MOTION":"14.46832324","ECCENTRICITY":"0.0114855","INCLINATION":"98.4341","RA_OF_ASC_NODE":"87.9254","ARG_OF_PERICENTER":"121.4421","MEAN_ANOMALY":"239.8057","EPHEMERIS_TYPE":"0","ELEMENT_SET_NO":"43","REV_AT_EPOCH":"485","BSTAR":"0.0018904","MEAN_MOTION_DOT":"7.398e-05","MEAN_MOTION_DDOT":"0","FILE":"1785847","TLE_LINE0":"0 CZ-2C DEB","TLE_LINE1":"1 40289U 14066D   14333.88353858  .00007398  00000-0  18904-2 0   433","TLE_LINE2":"2 40289 098.4341 087.9254 0114855 121.4421 239.8057 14.46832324  4856","OBJECT_ID":"2014-066D","OBJECT_NUMBER":"40289"},{"ORDINAL":"5","COMMENT":"GENERATED VIA SPACETRACK.ORG API","ORIGINATOR":"JSPOC","NORAD_CAT_ID":"40309","OBJECT_NAME":"CZ-2C DEB","OBJECT_TYPE":"DEBRIS","CLASSIFICATION_TYPE":"U","INTLDES":"14071E","EPOCH":"2014-11-29 20:29:09","EPOCH_MICROSECONDS":"51072","MEAN_MOTION":"14.99214183","ECCENTRICITY":"0.0128691","INCLINATION":"97.1251","RA_OF_ASC_NODE":"277.6392","ARG_OF_PERICENTER":"152.6202","MEAN_ANOMALY":"208.2299","EPHEMERIS_TYPE":"0","ELEMENT_SET_NO":"20","REV_AT_EPOCH":"225","BSTAR":"0.0025644","MEAN_MOTION_DOT":"0.00037268","MEAN_MOTION_DDOT":"0","FILE":"1786028","TLE_LINE0":"0 CZ-2C DEB","TLE_LINE1":"1 40309U 14071E   14333.85357698  .00037268  00000-0  25644-2 0   208","TLE_LINE2":"2 40309 097.1251 277.6392 0128691 152.6202 208.2299 14.99214183  2257","OBJECT_ID":"2014-071E","OBJECT_NUMBER":"40309"},{"ORDINAL":"5","COMMENT":"GENERATED VIA SPACETRACK.ORG API","ORIGINATOR":"JSPOC","NORAD_CAT_ID":"40151","OBJECT_NAME":"FOTON M4 DEB","OBJECT_TYPE":"DEBRIS","CLASSIFICATION_TYPE":"U","INTLDES":"14041D","EPOCH":"2014-11-29 16:42:38","EPOCH_MICROSECONDS":"64095","MEAN_MOTION":"15.12295683","ECCENTRICITY":"0.0070811","INCLINATION":"65.002","RA_OF_ASC_NODE":"274.0923","ARG_OF_PERICENTER":"44.0492","MEAN_ANOMALY":"316.6087","EPHEMERIS_TYPE":"0","ELEMENT_SET_NO":"100","REV_AT_EPOCH":"1194","BSTAR":"0.0079666","MEAN_MOTION_DOT":"0.00149913","MEAN_MOTION_DDOT":"0","FILE":"1785751","TLE_LINE0":"0 FOTON M4 DEB","TLE_LINE1":"1 40151U 14041D   14333.69627389  .00149913  00000-0  79666-2 0  1002","TLE_LINE2":"2 40151 065.0020 274.0923 0070811 044.0492 316.6087 15.12295683 11941","OBJECT_ID":"2014-041D","OBJECT_NUMBER":"40151"},{"ORDINAL":"3","COMMENT":"GENERATED VIA SPACETRACK.ORG API","ORIGINATOR":"JSPOC","NORAD_CAT_ID":"40113","OBJECT_NAME":"CZ-4C DEB","OBJECT_TYPE":"DEBRIS","CLASSIFICATION_TYPE":"U","INTLDES":"14047E","EPOCH":"2014-11-29 13:47:20","EPOCH_MICROSECONDS":"335488","MEAN_MOTION":"13.43921706","ECCENTRICITY":"0.0019735","INCLINATION":"63.4194","RA_OF_ASC_NODE":"64.0006","ARG_OF_PERICENTER":"25.6012","MEAN_ANOMALY":"334.5987","EPHEMERIS_TYPE":"0","ELEMENT_SET_NO":"78","REV_AT_EPOCH":"1509","BSTAR":"0","MEAN_MOTION_DOT":"-9e-07","MEAN_MOTION_DDOT":"0","FILE":"1785697","TLE_LINE0":"0 CZ-4C DEB","TLE_LINE1":"1 40113U 14047E   14333.57454092 -.00000090  00000-0  00000+0 0   782","TLE_LINE2":"2 40113 063.4194 064.0006 0019735 025.6012 334.5987 13.43921706 15095","OBJECT_ID":"2014-047E","OBJECT_NUMBER":"40113"},{"ORDINAL":"3","COMMENT":"GENERATED VIA SPACETRACK.ORG API","ORIGINATOR":"JSPOC","NORAD_CAT_ID":"39629","OBJECT_NAME":"CZ-2C DEB","OBJECT_TYPE":"DEBRIS","CLASSIFICATION_TYPE":"U","INTLDES":"14014F","EPOCH":"2014-11-29 09:55:00","EPOCH_MICROSECONDS":"900768","MEAN_MOTION":"14.21930922","ECCENTRICITY":"0.0180522","INCLINATION":"98.4703","RA_OF_ASC_NODE":"18.0362","ARG_OF_PERICENTER":"184.8605","MEAN_ANOMALY":"175.0828","EPHEMERIS_TYPE":"0","ELEMENT_SET_NO":"137","REV_AT_EPOCH":"3455","BSTAR":"0.0010025","MEAN_MOTION_DOT":"2.569e-05","MEAN_MOTION_DDOT":"0","FILE":"1785574","TLE_LINE0":"0 CZ-2C DEB","TLE_LINE1":"1 39629U 14014F   14333.41320487  .00002569  00000-0  10025-2 0  1378","TLE_LINE2":"2 39629 098.4703 018.0362 0180522 184.8605 175.0828 14.21930922 34553","OBJECT_ID":"2014-014F","OBJECT_NUMBER":"39629"},{"ORDINAL":"3","COMMENT":"GENERATED VIA SPACETRACK.ORG API","ORIGINATOR":"JSPOC","NORAD_CAT_ID":"40263","OBJECT_NAME":"CZ-2C DEB","OBJECT_TYPE":"DEBRIS","CLASSIFICATION_TYPE":"U","INTLDES":"14059C","EPOCH":"2014-11-29 05:33:51","EPOCH_MICROSECONDS":"224831","MEAN_MOTION":"14.47066659","ECCENTRICITY":"0.0115199","INCLINATION":"98.332","RA_OF_ASC_NODE":"60.4337","ARG_OF_PERICENTER":"32.6033","MEAN_ANOMALY":"328.2208","EPHEMERIS_TYPE":"0","ELEMENT_SET_NO":"45","REV_AT_EPOCH":"897","BSTAR":"0.0012094","MEAN_MOTION_DOT":"4.74e-05","MEAN_MOTION_DDOT":"0","FILE":"1785478","TLE_LINE0":"0 CZ-2C DEB","TLE_LINE1":"1 40263U 14059C   14333.23184288  .00004740  00000-0  12094-2 0   459","TLE_LINE2":"2 40263 098.3320 060.4337 0115199 032.6033 328.2208 14.47066659  8975","OBJECT_ID":"2014-059C","OBJECT_NUMBER":"40263"},{"ORDINAL":"3","COMMENT":"GENERATED VIA SPACETRACK.ORG API","ORIGINATOR":"JSPOC","NORAD_CAT_ID":"40290","OBJECT_NAME":"CZ-2C DEB","OBJECT_TYPE":"DEBRIS","CLASSIFICATION_TYPE":"U","INTLDES":"14066E","EPOCH":"2014-11-29 05:07:03","EPOCH_MICROSECONDS":"181727","MEAN_MOTION":"14.48911055","ECCENTRICITY":"0.0104329","INCLINATION":"97.9669","RA_OF_ASC_NODE":"85.6726","ARG_OF_PERICENTER":"124.3879","MEAN_ANOMALY":"236.7234","EPHEMERIS_TYPE":"0","ELEMENT_SET_NO":"29","REV_AT_EPOCH":"477","BSTAR":"0.0014476","MEAN_MOTION_DOT":"5.832e-05","MEAN_MOTION_DDOT":"0","FILE":"1785523","TLE_LINE0":"0 CZ-2C DEB","TLE_LINE1":"1 40290U 14066E   14333.21323127  .00005832  00000-0  14476-2 0   293","TLE_LINE2":"2 40290 097.9669 085.6726 0104329 124.3879 236.7234 14.48911055  4773","OBJECT_ID":"2014-066E","OBJECT_NUMBER":"40290"},{"ORDINAL":"3","COMMENT":"GENERATED VIA SPACETRACK.ORG API","ORIGINATOR":"JSPOC","NORAD_CAT_ID":"40291","OBJECT_NAME":"CZ-2C DEB","OBJECT_TYPE":"DEBRIS","CLASSIFICATION_TYPE":"U","INTLDES":"14066F","EPOCH":"2014-11-29 05:05:40","EPOCH_MICROSECONDS":"12224","MEAN_MOTION":"14.21495889","ECCENTRICITY":"0.0180608","INCLINATION":"98.4418","RA_OF_ASC_NODE":"85.9783","ARG_OF_PERICENTER":"73.8204","MEAN_ANOMALY":"288.2767","EPHEMERIS_TYPE":"0","ELEMENT_SET_NO":"21","REV_AT_EPOCH":"467","BSTAR":"0.001526","MEAN_MOTION_DOT":"3.901e-05","MEAN_MOTION_DDOT":"0","FILE":"1785524","TLE_LINE0":"0 CZ-2C DEB","TLE_LINE1":"1 40291U 14066F   14333.21226866  .00003901  00000-0  15260-2 0   215","TLE_LINE2":"2 40291 098.4418 085.9783 0180608 073.8204 288.2767 14.21495889  4677","OBJECT_ID":"2014-066F","OBJECT_NUMBER":"40291"},{"ORDINAL":"3","COMMENT":"GENERATED VIA SPACETRACK.ORG API","ORIGINATOR":"JSPOC","NORAD_CAT_ID":"39627","OBJECT_NAME":"CZ-2C DEB","OBJECT_TYPE":"DEBRIS","CLASSIFICATION_TYPE":"U","INTLDES":"14014D","EPOCH":"2014-11-29 02:14:58","EPOCH_MICROSECONDS":"255584","MEAN_MOTION":"14.20501121","ECCENTRICITY":"0.0185624","INCLINATION":"98.0621","RA_OF_ASC_NODE":"6.1329","ARG_OF_PERICENTER":"177.8964","MEAN_ANOMALY":"182.3038","EPHEMERIS_TYPE":"0","ELEMENT_SET_NO":"137","REV_AT_EPOCH":"3448","BSTAR":"0.00099555","MEAN_MOTION_DOT":"2.504e-05","MEAN_MOTION_DDOT":"0","FILE":"1785406","TLE_LINE0":"0 CZ-2C DEB","TLE_LINE1":"1 39627U 14014D   14333.09372981  .00002504  00000-0  99555-3 0  1371","TLE_LINE2":"2 39627 098.0621 006.1329 0185624 177.8964 182.3038 14.20501121 34485","OBJECT_ID":"2014-014D","OBJECT_NUMBER":"39627"},{"ORDINAL":"4","COMMENT":"GENERATED VIA SPACETRACK.ORG API","ORIGINATOR":"JSPOC","NORAD_CAT_ID":"40279","OBJECT_NAME":"BREEZE-M DEB (TANK)","OBJECT_TYPE":"DEBRIS","CLASSIFICATION_TYPE":"U","INTLDES":"14064C","EPOCH":"2014-11-29 01:51:47","EPOCH_MICROSECONDS":"248415","MEAN_MOTION":"2.14195094","ECCENTRICITY":"0.7359973","INCLINATION":"49.4071","RA_OF_ASC_NODE":"256.8024","ARG_OF_PERICENTER":"7.99","MEAN_ANOMALY":"359.1186","EPHEMERIS_TYPE":"0","ELEMENT_SET_NO":"29","REV_AT_EPOCH":"82","BSTAR":"0.0026998","MEAN_MOTION_DOT":"2.035e-05","MEAN_MOTION_DDOT":"0","FILE":"1786165","TLE_LINE0":"0 BREEZE-M DEB (TANK)","TLE_LINE1":"1 40279U 14064C   14333.07763019  .00002035  00000-0  26998-2 0   294","TLE_LINE2":"2 40279 049.4071 256.8024 7359973 007.9900 359.1186 02.14195094   822","OBJECT_ID":"2014-064C","OBJECT_NUMBER":"40279"},{"ORDINAL":"3","COMMENT":"GENERATED VIA SPACETRACK.ORG API","ORIGINATOR":"JSPOC","NORAD_CAT_ID":"39524","OBJECT_NAME":"BREEZE-M DEB (TANK)","OBJECT_TYPE":"DEBRIS","CLASSIFICATION_TYPE":"U","INTLDES":"14007C","EPOCH":"2014-11-28 23:54:09","EPOCH_MICROSECONDS":"416447","MEAN_MOTION":"3.71428628","ECCENTRICITY":"0.61799","INCLINATION":"49.3942","RA_OF_ASC_NODE":"331.6408","ARG_OF_PERICENTER":"115.5383","MEAN_ANOMALY":"319.0778","EPHEMERIS_TYPE":"0","ELEMENT_SET_NO":"176","REV_AT_EPOCH":"1063","BSTAR":"0.00076952","MEAN_MOTION_DOT":"1.177e-05","MEAN_MOTION_DDOT":"0","FILE":"1785526","TLE_LINE0":"0 BREEZE-M DEB (TANK)","TLE_LINE1":"1 39524U 14007C   14332.99594232  .00001177  00000-0  76952-3 0  1766","TLE_LINE2":"2 39524 049.3942 331.6408 6179900 115.5383 319.0778 03.71428628 10635","OBJECT_ID":"2014-007C","OBJECT_NUMBER":"39524"}]